FENGYUN 1C DEB          
1 31642U 99025CAY 17345.47109774  .00000123  00000-0  61275-4 0  9991
2 31642  98.6492  67.9458 0127674 211.2481 148.1067 14.28745767552416
